SL-14 R/B               
1 16792U 86046B   25354.46090843  .00000408  00000+0  44251-4 0  9993
2 16792  82.4815 155.0220 0024317 127.7307 232.6118 14.85492379114645
SL-14 R/B               
1 16882U 86055B   25353.84318900  .00000347  00000+0  37293-4 0  9991
2 16882  82.5198 201.6980 0017678 233.9468 136.6350 14.85537090107510
AJISAI (EGS)            
1 16908U 86061A   25354.38129528 -.00000100  00000+0 -14316-4 0  9993
2 16908  50.0113 337.2201 0011316  85.0752  24.9924 12.44514350458122
COSMOS 1812             
1 17295U 87003A   25354.28499384  .00081978  00000+0  50294-3 0  9993
2 17295  82.4878 283.8391 0006794  75.3498 284.8520 15.76972997131847
SL-14 R/B               
1 17567U 87024B   25353.98436249  .00000381  00000+0  40688-4 0  9991
2 17567  82.5276 167.6487 0018720 160.3498 199.8444 14.86030692 76298
COSMOS 1833             
1 17589U 87027A   25354.50479852  .00000203  00000+0  13411-3 0  9990
2 17589  70.9150 132.4535 0022852 320.8493  39.0974 14.13025241999120
SL-16 R/B               
1 17590U 87027B   25354.49623427  .00000195  00000+0  12028-3 0  9992
2 17590  71.0038  83.3743 0007262 251.3987 108.6349 14.17155278  4122
SL-14 R/B               
1 17912U 87038B   25354.40993845  .00000347  00000+0  37476-4 0  9991
2 17912  82.5011  11.4761 0020793  68.5910 291.7522 14.85267600 67469
COSMOS 1844             
1 17973U 87041A   25354.27003500  .00000227  00000+0  14260-3 0  9999
2 17973  70.8963 201.6883 0029813 145.1706 215.1374 14.14528037992353
SL-14 R/B               
1 18153U 87055B   25354.19838947  .00000358  00000+0  38616-4 0  9994
2 18153  82.4995  63.9594 0019163 276.8443  83.0593 14.85528139 58138
COSMOS 1867             
1 18187U 87060A   25354.21786087 -.00000047  00000+0  20040-4 0  9995
2 18187  65.0086 169.2606 0013643 271.8615  88.0907 14.31487222  8564
SL-14 R/B               
1 18749U 88001B   25354.05376807  .00000369  00000+0  39854-4 0  9991
2 18749  82.5136 270.2684 0019074 137.9002 222.3683 14.85430891 30202
