CCSDS_OMM_VERS = 2.0
CREATION_DATE  = 
ORIGINATOR     = 

OBJECT_NAME    = SL-14 R/B
OBJECT_ID      = 1986-046B
CENTER_NAME    = EARTH
REF_FRAME      = TEME
TIME_SYSTEM    = UTC
MEAN_ELEMENT_THEORY = SGP/SGP4

EPOCH          = 2025-12-20T11:03:42.488352
MEAN_MOTION    = 14.85492379
ECCENTRICITY   = .0024317
INCLINATION    = 82.4815
RA_OF_ASC_NODE = 155.0220
ARG_OF_PERICENTER = 127.7307
MEAN_ANOMALY   = 232.6118

EPHEMERIS_TYPE = 0
CLASSIFICATION_TYPE = U
NORAD_CAT_ID   = 16792
ELEMENT_SET_NO = 999
REV_AT_EPOCH   = 11464
BSTAR          = .44251E-4
MEAN_MOTION_DOT = .408E-5
MEAN_MOTION_DDOT = 0

CCSDS_OMM_VERS = 2.0
CREATION_DATE  = 
ORIGINATOR     = 

OBJECT_NAME    = SL-14 R/B
OBJECT_ID      = 1986-055B
CENTER_NAME    = EARTH
REF_FRAME      = TEME
TIME_SYSTEM    = UTC
MEAN_ELEMENT_THEORY = SGP/SGP4

EPOCH          = 2025-12-19T20:14:11.529600
MEAN_MOTION    = 14.85537090
ECCENTRICITY   = .00176787
INCLINATION    = 82.5198
RA_OF_ASC_NODE = 201.6980
ARG_OF_PERICENTER = 233.9468
MEAN_ANOMALY   = 136.6350

EPHEMERIS_TYPE = 0
CLASSIFICATION_TYPE = U
NORAD_CAT_ID   = 16882
ELEMENT_SET_NO = 999
REV_AT_EPOCH   = 10751
BSTAR          = .37292988E-4
MEAN_MOTION_DOT = .347E-5
MEAN_MOTION_DDOT = 0

CCSDS_OMM_VERS = 2.0
CREATION_DATE  = 
ORIGINATOR     = 

OBJECT_NAME    = AJISAI (EGS)
OBJECT_ID      = 1986-061A
CENTER_NAME    = EARTH
REF_FRAME      = TEME
TIME_SYSTEM    = UTC
MEAN_ELEMENT_THEORY = SGP/SGP4

EPOCH          = 2025-12-20T09:09:03.912192
MEAN_MOTION    = 12.44514350
ECCENTRICITY   = .0011316
INCLINATION    = 50.0113
RA_OF_ASC_NODE = 337.2201
ARG_OF_PERICENTER = 85.0752
MEAN_ANOMALY   = 24.9924

EPHEMERIS_TYPE = 0
CLASSIFICATION_TYPE = U
NORAD_CAT_ID   = 16908
ELEMENT_SET_NO = 999
REV_AT_EPOCH   = 45812
BSTAR          = -.14316E-4
MEAN_MOTION_DOT = -.1E-5
MEAN_MOTION_DDOT = 0

CCSDS_OMM_VERS = 2.0
CREATION_DATE  = 
ORIGINATOR     = 

OBJECT_NAME    = COSMOS 1812
OBJECT_ID      = 1987-003A
CENTER_NAME    = EARTH
REF_FRAME      = TEME
TIME_SYSTEM    = UTC
MEAN_ELEMENT_THEORY = SGP/SGP4

EPOCH          = 2025-12-20T06:50:23.467776
MEAN_MOTION    = 15.76972997
ECCENTRICITY   = .0006794
INCLINATION    = 82.4878
RA_OF_ASC_NODE = 283.8391
ARG_OF_PERICENTER = 75.3498
MEAN_ANOMALY   = 284.8520

EPHEMERIS_TYPE = 0
CLASSIFICATION_TYPE = U
NORAD_CAT_ID   = 17295
ELEMENT_SET_NO = 999
REV_AT_EPOCH   = 13184
BSTAR          = .50294E-3
MEAN_MOTION_DOT = .81978E-3
MEAN_MOTION_DDOT = 0

CCSDS_OMM_VERS = 2.0
CREATION_DATE  = 
ORIGINATOR     = 

OBJECT_NAME    = SL-14 R/B
OBJECT_ID      = 1987-024B
CENTER_NAME    = EARTH
REF_FRAME      = TEME
TIME_SYSTEM    = UTC
MEAN_ELEMENT_THEORY = SGP/SGP4

EPOCH          = 2025-12-19T23:37:28.919136
MEAN_MOTION    = 14.86030692
ECCENTRICITY   = .00187208
INCLINATION    = 82.5276
RA_OF_ASC_NODE = 167.6487
ARG_OF_PERICENTER = 160.3498
MEAN_ANOMALY   = 199.8444

EPHEMERIS_TYPE = 0
CLASSIFICATION_TYPE = U
NORAD_CAT_ID   = 17567
ELEMENT_SET_NO = 999
REV_AT_EPOCH   = 7629
BSTAR          = .40688323E-4
MEAN_MOTION_DOT = .381E-5
MEAN_MOTION_DDOT = 0

CCSDS_OMM_VERS = 2.0
CREATION_DATE  = 
ORIGINATOR     = 

OBJECT_NAME    = COSMOS 1833
OBJECT_ID      = 1987-027A
CENTER_NAME    = EARTH
REF_FRAME      = TEME
TIME_SYSTEM    = UTC
MEAN_ELEMENT_THEORY = SGP/SGP4

EPOCH          = 2025-12-20T12:06:54.592128
MEAN_MOTION    = 14.13025241
ECCENTRICITY   = .0022852
INCLINATION    = 70.9150
RA_OF_ASC_NODE = 132.4535
ARG_OF_PERICENTER = 320.8493
MEAN_ANOMALY   = 39.0974

EPHEMERIS_TYPE = 0
CLASSIFICATION_TYPE = U
NORAD_CAT_ID   = 17589
ELEMENT_SET_NO = 999
REV_AT_EPOCH   = 99912
BSTAR          = .13411E-3
MEAN_MOTION_DOT = .203E-5
MEAN_MOTION_DDOT = 0

CCSDS_OMM_VERS = 2.0
CREATION_DATE  = 
ORIGINATOR     = 

OBJECT_NAME    = SL-16 R/B
OBJECT_ID      = 1987-027B
CENTER_NAME    = EARTH
REF_FRAME      = TEME
TIME_SYSTEM    = UTC
MEAN_ELEMENT_THEORY = SGP/SGP4

EPOCH          = 2025-12-20T11:54:34.640928
MEAN_MOTION    = 14.17155278
ECCENTRICITY   = .0007262
INCLINATION    = 71.0038
RA_OF_ASC_NODE = 83.3743
ARG_OF_PERICENTER = 251.3987
MEAN_ANOMALY   = 108.6349

EPHEMERIS_TYPE = 0
CLASSIFICATION_TYPE = U
NORAD_CAT_ID   = 17590
ELEMENT_SET_NO = 999
REV_AT_EPOCH   = 412
BSTAR          = .12028E-3
MEAN_MOTION_DOT = .195E-5
MEAN_MOTION_DDOT = 0

CCSDS_OMM_VERS = 2.0
CREATION_DATE  = 
ORIGINATOR     = 

OBJECT_NAME    = SL-14 R/B
OBJECT_ID      = 1987-038B
CENTER_NAME    = EARTH
REF_FRAME      = TEME
TIME_SYSTEM    = UTC
MEAN_ELEMENT_THEORY = SGP/SGP4

EPOCH          = 2025-12-20T09:50:18.682080
MEAN_MOTION    = 14.85267600
ECCENTRICITY   = .0020793
INCLINATION    = 82.5011
RA_OF_ASC_NODE = 11.4761
ARG_OF_PERICENTER = 68.5910
MEAN_ANOMALY   = 291.7522

EPHEMERIS_TYPE = 0
CLASSIFICATION_TYPE = U
NORAD_CAT_ID   = 17912
ELEMENT_SET_NO = 999
REV_AT_EPOCH   = 6746
BSTAR          = .37476E-4
MEAN_MOTION_DOT = .347E-5
MEAN_MOTION_DDOT = 0

CCSDS_OMM_VERS = 2.0
CREATION_DATE  = 
ORIGINATOR     = 

OBJECT_NAME    = COSMOS 1844
OBJECT_ID      = 1987-041A
CENTER_NAME    = EARTH
REF_FRAME      = TEME
TIME_SYSTEM    = UTC
MEAN_ELEMENT_THEORY = SGP/SGP4

EPOCH          = 2025-12-20T06:28:51.024000
MEAN_MOTION    = 14.14528037
ECCENTRICITY   = .0029813
INCLINATION    = 70.8963
RA_OF_ASC_NODE = 201.6883
ARG_OF_PERICENTER = 145.1706
MEAN_ANOMALY   = 215.1374

EPHEMERIS_TYPE = 0
CLASSIFICATION_TYPE = U
NORAD_CAT_ID   = 17973
ELEMENT_SET_NO = 999
REV_AT_EPOCH   = 99235
BSTAR          = .1426E-3
MEAN_MOTION_DOT = .227E-5
MEAN_MOTION_DDOT = 0

CCSDS_OMM_VERS = 2.0
CREATION_DATE  = 
ORIGINATOR     = 

OBJECT_NAME    = SL-14 R/B
OBJECT_ID      = 1987-055B
CENTER_NAME    = EARTH
REF_FRAME      = TEME
TIME_SYSTEM    = UTC
MEAN_ELEMENT_THEORY = SGP/SGP4

EPOCH          = 2025-12-20T04:45:40.850208
MEAN_MOTION    = 14.85528139
ECCENTRICITY   = .00191632
INCLINATION    = 82.4995
RA_OF_ASC_NODE = 63.9594
ARG_OF_PERICENTER = 276.8443
MEAN_ANOMALY   = 83.0593

EPHEMERIS_TYPE = 0
CLASSIFICATION_TYPE = U
NORAD_CAT_ID   = 18153
ELEMENT_SET_NO = 999
REV_AT_EPOCH   = 5813
BSTAR          = .38616447E-4
MEAN_MOTION_DOT = .358E-5
MEAN_MOTION_DDOT = 0

CCSDS_OMM_VERS = 2.0
CREATION_DATE  = 
ORIGINATOR     = 

OBJECT_NAME    = COSMOS 1867
OBJECT_ID      = 1987-060A
CENTER_NAME    = EARTH
REF_FRAME      = TEME
TIME_SYSTEM    = UTC
MEAN_ELEMENT_THEORY = SGP/SGP4

EPOCH          = 2025-12-20T05:13:43.179168
MEAN_MOTION    = 14.31487222
ECCENTRICITY   = .0013643
INCLINATION    = 65.0086
RA_OF_ASC_NODE = 169.2606
ARG_OF_PERICENTER = 271.8615
MEAN_ANOMALY   = 88.0907

EPHEMERIS_TYPE = 0
CLASSIFICATION_TYPE = U
NORAD_CAT_ID   = 18187
ELEMENT_SET_NO = 999
REV_AT_EPOCH   = 856
BSTAR          = .2004E-4
MEAN_MOTION_DOT = -.47E-6
MEAN_MOTION_DDOT = 0

CCSDS_OMM_VERS = 2.0
CREATION_DATE  = 
ORIGINATOR     = 

OBJECT_NAME    = SL-14 R/B
OBJECT_ID      = 1988-001B
CENTER_NAME    = EARTH
REF_FRAME      = TEME
TIME_SYSTEM    = UTC
MEAN_ELEMENT_THEORY = SGP/SGP4

EPOCH          = 2025-12-20T01:17:25.561248
MEAN_MOTION    = 14.85430891
ECCENTRICITY   = .00190741
INCLINATION    = 82.5136
RA_OF_ASC_NODE = 270.2684
ARG_OF_PERICENTER = 137.9002
MEAN_ANOMALY   = 222.3683

EPHEMERIS_TYPE = 0
CLASSIFICATION_TYPE = U
NORAD_CAT_ID   = 18749
ELEMENT_SET_NO = 999
REV_AT_EPOCH   = 3020
BSTAR          = .39854045E-4
MEAN_MOTION_DOT = .369E-5
MEAN_MOTION_DDOT = 0

